{"type": "FeatureCollection", "features": [ {"type": "Feature", "properties": {"norad_id": 31211, "name": "FENGYUN 1C DEB", "group": "fengyun-1c-debris", "lat": 49.07806580617788, "lon": -141.09039236332708, "alt_km": 801.4080985274677, "timestamp": "2025-12-18T23:35:49.341625+00:00", "meta": {"OBJECT_NAME": "FENGYUN 1C DEB", "OBJECT_ID": "1999-025BKR", "EPOCH": "2025-12-13T21:14:20.909472", "MEAN_MOTION": 14.20060209, "ECCENTRICITY": 0.00507722, "INCLINATION": 98.6733, "RA_OF_ASC_NODE": 23.7713, "ARG_OF_PERICENTER": 86.1376, "MEAN_ANOMALY": 274.5603, "EPHEMERIS_TYPE": 0, "CLASSIFICATION_TYPE": "U", "NORAD_CAT_ID": 31211, "ELEMENT_SET_NO": 999, "REV_AT_EPOCH": 63309, "BSTAR": 0.0012518194, "MEAN_MOTION_DOT": 2.658e-05, "MEAN_MOTION_DDOT": 0}, "tle": {"line1": "1 31211U 99025BKR 25347.88496423  .00002658  00000+0  12518-2 0  9997", "line2": "2 31211  98.6733  23.7713 0050772  86.1376 274.5603 14.20060209633093"}}, "geometry": {"type": "Point", "coordinates": [-141.09039236332708, 49.07806580617788]}}, {"type": "Feature", "properties": {"norad_id": 31212, "name": "FENGYUN 1C DEB", "group": "fengyun-1c-debris", "lat": -46.06682963935893, "lon": 34.339239919889835, "alt_km": 905.9425085096054, "timestamp": "2025-12-18T23:35:49.341635+00:00", "meta": {"OBJECT_NAME": "FENGYUN 1C DEB", "OBJECT_ID": "1999-025BKS", "EPOCH": "2025-12-14T12:45:56.653344", "MEAN_MOTION": 14.13124373, "ECCENTRICITY": 0.00752745, "INCLINATION": 99.2196, "RA_OF_ASC_NODE": 20.0508, "ARG_OF_PERICENTER": 167.0098, "MEAN_ANOMALY": 193.3035, "EPHEMERIS_TYPE": 0, "CLASSIFICATION_TYPE": "U", "NORAD_CAT_ID": 31212, "ELEMENT_SET_NO": 999, "REV_AT_EPOCH": 95684, "BSTAR": 0.0014706798, "MEAN_MOTION_DOT": 2.778e-05, "MEAN_MOTION_DDOT": 0}, "tle": {"line1": "1 31212U 99025BKS 25348.53190571  .00002778  00000+0  14707-2 0  9991", "line2": "2 31212  99.2196  20.0508 0075274 167.0098 193.3035 14.13124373956843"}}, "geometry": {"type": "Point", "coordinates": [34.339239919889835, -46.06682963935893]}}, {"type": "Feature", "properties": {"norad_id": 31215, "name": "FENGYUN 1C DEB", "group": "fengyun-1c-debris", "lat": 38.5318837051492, "lon": -169.9659825184993, "alt_km": 778.4425824013424, "timestamp": "2025-12-18T23:35:49.341645+00:00", "meta": {"OBJECT_NAME": "FENGYUN 1C DEB", "OBJECT_ID": "1999-025BKV", "EPOCH": "2025-12-15T08:19:35.240160", "MEAN_MOTION": 14.33803054, "ECCENTRICITY": 0.00700435, "INCLINATION": 99.0713, "RA_OF_ASC_NODE": 193.5324, "ARG_OF_PERICENTER": 316.6718, "MEAN_ANOMALY": 42.897, "EPHEMERIS_TYPE": 0, "CLASSIFICATION_TYPE": "U", "NORAD_CAT_ID": 31215, "ELEMENT_SET_NO": 999, "REV_AT_EPOCH": 96563, "BSTAR": 0.00074953738, "MEAN_MOTION_DOT": 2.094e-05, "MEAN_MOTION_DDOT": 0}, "tle": {"line1": "1 31215U 99025BKV 25349.34693565  .00002094  00000+0  74954-3 0  9997", "line2": "2 31215  99.0713 193.5324 0070043 316.6718  42.8970 14.33803054965636"}}, "geometry": {"type": "Point", "coordinates": [-169.9659825184993, 38.5318837051492]}}, {"type": "Feature", "properties": {"norad_id": 31217, "name": "FENGYUN 1C DEB", "group": "fengyun-1c-debris", "lat": -8.134371839211115, "lon": 179.45360013467624, "alt_km": 787.0929201888193, "timestamp": "2025-12-18T23:35:49.341655+00:00", "meta": {"OBJECT_NAME": "FENGYUN 1C DEB", "OBJECT_ID": "1999-025BKX", "EPOCH": "2025-12-17T17:55:15.855456", "MEAN_MOTION": 14.17549567, "ECCENTRICITY": 0.0099896, "INCLINATION": 98.6404, "RA_OF_ASC_NODE": 359.4964, "ARG_OF_PERICENTER": 145.7057, "MEAN_ANOMALY": 215.0622, "EPHEMERIS_TYPE": 0, "CLASSIFICATION_TYPE": "U", "NORAD_CAT_ID": 31217, "ELEMENT_SET_NO": 999, "REV_AT_EPOCH": 96419, "BSTAR": 0.00045754541, "MEAN_MOTION_DOT": 9.34e-06, "MEAN_MOTION_DDOT": 0}, "tle": {"line1": "1 31217U 99025BKX 25351.74671129  .00000934  00000+0  45755-3 0  9996", "line2": "2 31217  98.6404 359.4964 0099896 145.7057 215.0622 14.17549567964193"}}, "geometry": {"type": "Point", "coordinates": [179.45360013467624, -8.134371839211115]}}, {"type": "Feature", "properties": {"norad_id": 31218, "name": "FENGYUN 1C DEB", "group": "fengyun-1c-debris", "lat": -59.74476251364965, "lon": -91.77148681476653, "alt_km": 664.4488521599778, "timestamp": "2025-12-18T23:35:49.341666+00:00", "meta": {"OBJECT_NAME": "FENGYUN 1C DEB", "OBJECT_ID": "1999-025BKY", "EPOCH": "2025-12-18T06:12:02.410272", "MEAN_MOTION": 14.72744706, "ECCENTRICITY": 0.00116894, "INCLINATION": 98.8436, "RA_OF_ASC_NODE": 102.9207, "ARG_OF_PERICENTER": 11.8199, "MEAN_ANOMALY": 348.3279, "EPHEMERIS_TYPE": 0, "CLASSIFICATION_TYPE": "U", "NORAD_CAT_ID": 31218, "ELEMENT_SET_NO": 999, "REV_AT_EPOCH": 97164, "BSTAR": 0.0037727356, "MEAN_MOTION_DOT": 0.00024138, "MEAN_MOTION_DDOT": 0}, "tle": {"line1": "1 31218U 99025BKY 25352.25836123  .00024138  00000+0  37727-2 0  9992", "line2": "2 31218  98.8436 102.9207 0011689  11.8199 348.3279 14.72744706971645"}}, "geometry": {"type": "Point", "coordinates": [-91.77148681476653, -59.74476251364965]}}, {"type": "Feature", "properties": {"norad_id": 31219, "name": "FENGYUN 1C DEB", "group": "fengyun-1c-debris", "lat": -41.51071295427334, "lon": 174.75589201584913, "alt_km": 825.9622617143186, "timestamp": "2025-12-18T23:35:49.341676+00:00", "meta": {"OBJECT_NAME": "FENGYUN 1C DEB", "OBJECT_ID": "1999-025BKZ", "EPOCH": "2025-12-14T18:20:38.656320", "MEAN_MOTION": 14.13798373, "ECCENTRICITY": 0.00791314, "INCLINATION": 99.2837, "RA_OF_ASC_NODE": 358.7011, "ARG_OF_PERICENTER": 171.5473, "MEAN_ANOMALY": 188.7052, "EPHEMERIS_TYPE": 0, "CLASSIFICATION_TYPE": "U", "NORAD_CAT_ID": 31219, "ELEMENT_SET_NO": 999, "REV_AT_EPOCH": 95598, "BSTAR": 0.001362468, "MEAN_MOTION_DOT": 2.61e-05, "MEAN_MOTION_DDOT": 0}, "tle": {"line1": "1 31219U 99025BKZ 25348.76433630  .00002610  00000+0  13625-2 0  9992", "line2": "2 31219  99.2837 358.7011 0079131 171.5473 188.7052 14.13798373955983"}}, "geometry": {"type": "Point", "coordinates": [174.75589201584913, -41.51071295427334]}}, {"type": "Feature", "properties": {"norad_id": 31222, "name": "FENGYUN 1C DEB", "group": "fengyun-1c-debris", "lat": 42.46392716869808, "lon": -108.42584009926553, "alt_km": 562.9027452900755, "timestamp": "2025-12-18T23:35:49.341687+00:00", "meta": {"OBJECT_NAME": "FENGYUN 1C DEB", "OBJECT_ID": "1999-025BLC", "EPOCH": "2025-12-18T03:45:54.771552", "MEAN_MOTION": 14.97910413, "ECCENTRICITY": 0.01702782, "INCLINATION": 98.6142, "RA_OF_ASC_NODE": 62.6881, "ARG_OF_PERICENTER": 51.9432, "MEAN_ANOMALY": 309.7013, "EPHEMERIS_TYPE": 0, "CLASSIFICATION_TYPE": "U", "NORAD_CAT_ID": 31222, "ELEMENT_SET_NO": 999, "REV_AT_EPOCH": 64, "BSTAR": 0.00049678165, "MEAN_MOTION_DOT": 7.824e-05, "MEAN_MOTION_DDOT": 0}, "tle": {"line1": "1 31222U 99025BLC 25352.15688393  .00007824  00000+0  49678-3 0  9992", "line2": "2 31222  98.6142  62.6881 0170278  51.9432 309.7013 14.97910413   644"}}, "geometry": {"type": "Point", "coordinates": [-108.42584009926553, 42.46392716869808]}}, {"type": "Feature", "properties": {"norad_id": 31223, "name": "FENGYUN 1C DEB", "group": "fengyun-1c-debris", "lat": 57.16267965775057, "lon": -135.24946907306884, "alt_km": 818.2463154090838, "timestamp": "2025-12-18T23:35:49.341696+00:00", "meta": {"OBJECT_NAME": "FENGYUN 1C DEB", "OBJECT_ID": "1999-025BLD", "EPOCH": "2025-12-17T15:56:44.115936", "MEAN_MOTION": 13.77273936, "ECCENTRICITY": 0.0243496, "INCLINATION": 99.0066, "RA_OF_ASC_NODE": 237.7256, "ARG_OF_PERICENTER": 27.8459, "MEAN_ANOMALY": 333.5484, "EPHEMERIS_TYPE": 0, "CLASSIFICATION_TYPE": "U", "NORAD_CAT_ID": 31223, "ELEMENT_SET_NO": 999, "REV_AT_EPOCH": 92796, "BSTAR": 0.0021509612, "MEAN_MOTION_DOT": 2.615e-05, "MEAN_MOTION_DDOT": 0}, "tle": {"line1": "1 31223U 99025BLD 25351.66439949  .00002615  00000+0  21510-2 0  9996", "line2": "2 31223  99.0066 237.7256 0243496  27.8459 333.5484 13.77273936927969"}}, "geometry": {"type": "Point", "coordinates": [-135.24946907306884, 57.16267965775057]}}, {"type": "Feature", "properties": {"norad_id": 31224, "name": "FENGYUN 1C DEB", "group": "fengyun-1c-debris", "lat": -14.776565471966592, "lon": -13.14542263703587, "alt_km": 906.0455345709624, "timestamp": "2025-12-18T23:35:49.341707+00:00", "meta": {"OBJECT_NAME": "FENGYUN 1C DEB", "OBJECT_ID": "1999-025BLE", "EPOCH": "2025-12-17T05:43:55.673184", "MEAN_MOTION": 14.28902802, "ECCENTRICITY": 0.01582842, "INCLINATION": 98.3697, "RA_OF_ASC_NODE": 342.954, "ARG_OF_PERICENTER": 149.6216, "MEAN_ANOMALY": 228.2145, "EPHEMERIS_TYPE": 0, "CLASSIFICATION_TYPE": "U", "NORAD_CAT_ID": 31224, "ELEMENT_SET_NO": 999, "REV_AT_EPOCH": 69315, "BSTAR": 0.00023481345, "MEAN_MOTION_DOT": 6.35e-06, "MEAN_MOTION_DDOT": 0}, "tle": {"line1": "1 31224U 99025BLE 25351.23883881  .00000635  00000+0  23481-3 0  9998", "line2": "2 31224  98.3697 342.9540 0158284 149.6216 228.2145 14.28902802693154"}}, "geometry": {"type": "Point", "coordinates": [-13.14542263703587, -14.776565471966592]}}, {"type": "Feature", "properties": {"norad_id": 31225, "name": "FENGYUN 1C DEB", "group": "fengyun-1c-debris", "lat": 16.240362839579035, "lon": -111.07081585294237, "alt_km": 895.5735862342763, "timestamp": "2025-12-18T23:35:49.341717+00:00", "meta": {"OBJECT_NAME": "FENGYUN 1C DEB", "OBJECT_ID": "1999-025BLF", "EPOCH": "2025-12-17T21:42:31.734144", "MEAN_MOTION": 14.17884572, "ECCENTRICITY": 0.00880538, "INCLINATION": 98.9901, "RA_OF_ASC_NODE": 65.1944, "ARG_OF_PERICENTER": 336.415, "MEAN_ANOMALY": 84.2908, "EPHEMERIS_TYPE": 0, "CLASSIFICATION_TYPE": "U", "NORAD_CAT_ID": 31225, "ELEMENT_SET_NO": 999, "REV_AT_EPOCH": 95895, "BSTAR": 0.0009952298, "MEAN_MOTION_DOT": 2.067e-05, "MEAN_MOTION_DDOT": 0}, "tle": {"line1": "1 31225U 99025BLF 25351.90453396  .00002067  00000+0  99523-3 0  9998", "line2": "2 31225  98.9901  65.1944 0088053 336.4150  84.2908 14.17884572958950"}}, "geometry": {"type": "Point", "coordinates": [-111.07081585294237, 16.240362839579035]}}]}